STARLINK-2209           
1 47776U 21017BG  25344.48263635  .00002069  00000+0  15765-3 0  9990
2 47776  53.0548 252.0835 0001444  83.9415 276.1739 15.06418065264302
STARLINK-2211           
1 47778U 21017BJ  25343.45796308  .00009668  00000+0  66731-3 0  9997
2 47778  53.0540 256.6824 0001314  98.1420 261.9718 15.06386596264148
STARLINK-2213           
1 47780U 21017BL  25344.74435438  .00019435  00000+0  13201-2 0  9993
2 47780  53.0541 250.9121 0001541  87.5669 272.5496 15.06400417264373
STARLINK-2257           
1 47787U 21018A   25344.26516946  .00011335  00000+0  77812-3 0  9992
2 47787  53.0552 293.0585 0001535  96.5769 263.5395 15.06424422263119
STARLINK-2314           
1 47788U 21018B   25344.80747355  .00016396  00000+0  11171-2 0  9990
2 47788  53.0545 265.6284 0000990  69.0673 291.0422 15.06398510263560
STARLINK-2315           
1 47789U 21018C   25344.52501491  .00042644  00000+0  28613-2 0  9993
2 47789  53.0544 271.8917 0001436  93.4664 266.6489 15.06442055263441
STARLINK-2319           
1 47790U 21018D   25344.50015646  .00000891  00000+0  78701-4 0  9998
2 47790  53.0541 262.0095 0001888  75.0797 285.0401 15.06394573263588
STARLINK-2322           
1 47791U 21018E   25344.85124098  .00007123  00000+0  49652-3 0  9996
2 47791  53.0542 290.4293 0002365  83.1684 276.9574 15.06406081263219
STARLINK-2334           
1 47792U 21018F   25344.79777735 -.00013410  00000+0 -88336-3 0  9992
2 47792  53.0558 270.6710 0001408  84.5786 275.5364 15.06385933263489
STARLINK-2338           
1 47793U 21018G   25344.81254653 -.00000130  00000+0  10153-4 0  9992
2 47793  53.0559 270.6055 0001522  64.8032 295.3115 15.06385139263476
STARLINK-2373           
1 47796U 21018K   25344.81990947 -.00001228  00000+0 -63599-4 0  9990
2 47796  53.0553 270.5764 0001109  52.5570 307.5519 15.06390903263481
STARLINK-2377           
1 47797U 21018L   25344.59091851  .00008363  00000+0  57951-3 0  9991
2 47797  53.0549 296.6002 0001485  95.0866 265.0293 15.06408804263092
STARLINK-2379           
1 47798U 21018M   25344.83096184  .00010380  00000+0  71435-3 0  9998
2 47798  53.0531 270.5210 0001326  60.9225 299.1897 15.06416953263485
STARLINK-2380           
1 47799U 21018N   25344.82727307  .00011078  00000+0  76110-3 0  9996
2 47799  53.0553 270.5390 0002589  82.6990 277.4293 15.06415041263476
STARLINK-2381           
1 47800U 21018P   25344.18593468  .00020607  00000+0  13974-2 0  9993
2 47800  53.0541 273.4142 0001397  92.0947 268.0202 15.06423506263387
STARLINK-2383           
1 47802U 21018R   25344.59829072  .00007175  00000+0  49991-3 0  9997
2 47802  53.0559 296.5651 0001603  87.8371 272.2801 15.06411479263100
STARLINK-2385           
1 47804U 21018T   25344.80884720  .00014511  00000+0  99032-3 0  9997
2 47804  53.0540 270.6201 0002112  82.3920 277.7309 15.06427984263473
STARLINK-2386           
1 47805U 21018U   25344.51032001  .00004997  00000+0  35403-3 0  9992
2 47805  53.0546 272.2037 0001343  90.2895 269.8248 15.06410540263439
STARLINK-2387           
1 47806U 21018V   25344.58078462  .00003196  00000+0  23332-3 0  9999
2 47806  53.0545 286.6536 0001923  80.7384 279.3822 15.06405996263290
STARLINK-2388           
1 47807U 21018W   25344.50383953  .00018765  00000+0  12743-2 0  9997
2 47807  53.0543 261.9884 0001286  90.4210 269.6926 15.06428881263564
STARLINK-2389           
1 47808U 21018X   25344.26747389  .00021750  00000+0  14734-2 0  9998
2 47808  53.0557 288.0503 0001497  87.8461 272.2699 15.06429024263242
STARLINK-2391           
1 47810U 21018Z   25344.16471630  .00006466  00000+0  45264-3 0  9993
2 47810  53.0554 303.5189 0001422  61.6219 298.4914 15.06396605263017
STARLINK-2393           
1 47812U 21018AB  25344.83334491  .00496617  00000+0  19288-2 0  9999
2 47812  53.0484 276.1642 0009705 106.2352 278.6760 15.85285011  5991
STARLINK-2395           
1 47814U 21018AD  25344.25043036  .00021245  00000+0  14401-2 0  9992
2 47814  53.0546 293.1252 0001377  93.5625 266.5522 15.06420923263170
STARLINK-2396           
1 47815U 21018AE  25344.54760421  .00000026  00000+0  20674-4 0  9994
2 47815  53.0546 286.7887 0002619  74.2364 285.8913 15.06400638263224
STARLINK-2399           
1 47816U 21018AF  25344.55635990  .00006124  00000+0  42957-3 0  9990
2 47816  53.0551 291.7486 0001180  69.2127 290.8988 15.06406787263156
STARLINK-2400           
1 47817U 21018AG  25344.57478897  .00004475  00000+0  31906-3 0  9993
2 47817  53.0552 291.6685 0001451  81.5777 278.5376 15.06408997263156
STARLINK-2401           
1 47818U 21018AH  25344.57990961  .00004578  00000+0  32578-3 0  9995
2 47818  53.0535 297.1152 0001261  73.8085 286.3043 15.06424458263083
STARLINK-2402           
1 47819U 21018AJ  25344.24579334  .00021530  00000+0  14589-2 0  9995
2 47819  53.0547 293.1372 0001414  95.4465 264.6686 15.06424136263174
STARLINK-2406           
1 47821U 21018AL  25344.27252558  .00008671  00000+0  59971-3 0  9993
2 47821  53.0541 293.0355 0001433 103.1350 256.9799 15.06438173263111
STARLINK-2407           
1 47822U 21018AM  25344.61348010  .00001425  00000+0  11460-3 0  9992
2 47822  53.0554 301.4870 0001972  83.8918 276.2296 15.06394824263036
STARLINK-2408           
1 47823U 21018AN  25344.56278683  .00003732  00000+0  26926-3 0  9991
2 47823  53.0550 291.7141 0001698  74.0059 286.1117 15.06409753263162
STARLINK-2409           
1 47824U 21018AP  25344.81806212 -.00001255  00000+0 -65354-4 0  9994
2 47824  53.0568 290.5820 0001933 108.9805 251.1394 15.06406319263198
STARLINK-2410           
1 47825U 21018AQ  25344.57110252  .00006807  00000+0  47540-3 0  9992
2 47825  53.0546 291.6849 0002077  78.9551 281.1672 15.06401565263169
STARLINK-2411           
1 47826U 21018AR  25344.56741959  .00005605  00000+0  39481-3 0  9996
2 47826  53.0554 291.7001 0001769  86.3445 273.7746 15.06407917263168
STARLINK-2413           
1 47827U 21018AS  25344.81533491  .00010526  00000+0  72429-3 0  9992
2 47827  53.0527 280.8320 0002425  80.5885 279.5378 15.06411366263399
STARLINK-2415           
1 47828U 21018AT  25344.61810339  .00006112  00000+0  42869-3 0  9991
2 47828  53.0539 301.4764 0002006  86.4588 273.6630 15.06412768263039
STARLINK-2419           
1 47830U 21018AV  25344.30109696  .00002227  00000+0  16827-3 0  9995
2 47830  53.0567 302.8986 0001183  90.5170 269.5954 15.06412492262971
STARLINK-2420           
1 47831U 21018AW  25344.83235279  .00013048  00000+0  89273-3 0  9999
2 47831  53.0551 275.5167 0001891  55.0721 305.0446 15.06419392263469
STARLINK-2422           
1 47832U 21018AX  25344.58953484  .00005040  00000+0  35688-3 0  9991
2 47832  53.0551 291.6041 0001125  91.5190 268.5928 15.06413578263160
STARLINK-2423           
1 47833U 21018AY  25344.54898758  .00004008  00000+0  28771-3 0  9998
2 47833  53.0554 291.7864 0001452  92.9921 267.1234 15.06412763263214
STARLINK-2424           
1 47834U 21018AZ  25344.56004721  .00010155  00000+0  69968-3 0  9993
2 47834  53.0546 291.7393 0000992  95.5963 264.5139 15.06398906263213
STARLINK-2426           
1 47836U 21018BB  25344.24675250  .00003858  00000+0  27773-3 0  9991
2 47836  53.0553 293.2287 0001608  88.7598 271.3575 15.06405571263111
STARLINK-2427           
1 47837U 21018BC  25344.78672828  .00016483  00000+0  11222-2 0  9998
2 47837  53.0538 270.7190 0001714 126.8023 233.3123 15.06423492263482
STARLINK-2429           
1 47838U 21018BD  25344.26884944  .00003837  00000+0  27621-3 0  9996
2 47838  53.0558 293.0431 0001440  97.0364 263.0789 15.06418137263112
STARLINK-2431           
1 47839U 21018BE  25344.49646773  .00000722  00000+0  67391-4 0  9997
2 47839  53.0544 262.0229 0001856  80.3672 279.7527 15.06396563263580
STARLINK-2432           
1 47840U 21018BF  25344.77198985  .00012619  00000+0  86406-3 0  9992
2 47840  53.0561 270.7863 0001204  90.9592 269.1535 15.06420782263477
STARLINK-2433           
1 47841U 21018BG  25344.50293181  .00008916  00000+0  61684-3 0  9994
2 47841  53.0555 271.9950 0001132  96.5307 263.5811 15.06392417263431
STARLINK-2435           
1 47843U 21018BJ  25344.59460544  .00004238  00000+0  30320-3 0  9990
2 47843  53.0549 296.5815 0001408  88.8726 271.2424 15.06405220263112
STARLINK-2446           
1 47844U 21018BK  25344.59322042  .00000294  00000+0  38654-4 0  9998
2 47844  53.0557 291.5871 0001459  91.5619 268.5537 15.06395742263163
STARLINK-2453           
1 47845U 21018BL  25344.08087124  .00004357  00000+0  31110-3 0  9995
2 47845  53.0556 293.8881 0001446  87.3326 272.7829 15.06414397263094
STARLINK-2280           
1 47861U 21021B   25344.29880868  .00014135  00000+0  96541-3 0  9990
2 47861  53.0566 307.9124 0001577  75.8763 284.2402 15.06419001262790
STARLINK-2291           
1 47862U 21021C   25344.21265148  .00018639  00000+0  12664-2 0  9997
2 47862  53.0551 303.2958 0001325  93.5652 266.5489 15.06414141262848
STARLINK-2326           
1 47870U 21021L   25344.68768880 -.00002532  00000+0 -15120-3 0  9996
2 47870  53.0552 326.1652 0001257  84.8297 275.2835 15.06390001262463
STARLINK-2329           
1 47873U 21021P   25344.58123502 -.00000454  00000+0 -11576-4 0  9997
2 47873  53.0543 301.6391 0002311  88.0381 272.0873 15.06408320262894
STARLINK-2330           
1 47874U 21021Q   25344.72360874  .00011245  00000+0  77280-3 0  9990
2 47874  53.0552 256.0144 0000876  78.9880 281.1207 15.06391494263559
STARLINK-2336           
1 47879U 21021V   25344.18639324 -.00003549  00000+0 -21953-3 0  9990
2 47879  53.0568 328.4153 0001472  86.4533 273.6624 15.06386814262667
STARLINK-2340           
1 47882U 21021Y   25344.89013556  .01540469  15820-2  19335-2 0  9990
2 47882  53.0202 207.3252 0008813 210.4000 149.6523 16.07269191264421
STARLINK-2342           
1 47883U 21021Z   25344.66279451  .00004229  00000+0  30260-3 0  9994
2 47883  53.0559 316.2775 0001234  82.3897 277.7232 15.06407167262879
